{"type": "FeatureCollection", "features": [{"type": "Feature", "properties": {"norad_id": 22490, "name": "SCD 1", "group": "resource", "lat": 17.692149400195053, "lon": 0.6125393263431786, "alt_km": 759.3205237337679, "timestamp": "2025-12-06T11:28:10.685524+00:00", "meta": {"OBJECT_NAME": "SCD 1", "OBJECT_ID": "1993-009B", "EPOCH": "2025-12-05T23:49:15.755808", "MEAN_MOTION": 14.45991298, "ECCENTRICITY": 0.00417583, "INCLINATION": 24.9708, "RA_OF_ASC_NODE": 320.3374, "ARG_OF_PERICENTER": 253.2187, "MEAN_ANOMALY": 140.9365, "EPHEMERIS_TYPE": 0, "CLASSIFICATION_TYPE": "U", "NORAD_CAT_ID": 22490, "ELEMENT_SET_NO": 999, "REV_AT_EPOCH": 73312, "BSTAR": 0.00017092271, "MEAN_MOTION_DOT": 8.12e-06, "MEAN_MOTION_DDOT": 0}, "tle": {"line1": "1 22490U 93009B   25339.99254347  .00000812  00000+0  17092-3 0  9995", "line2": "2 22490  24.9708 320.3374 0041758 253.2187 140.9365 14.45991298733120"}}, "geometry": {"type": "Point", "coordinates": [0.6125393263431786, 17.692149400195053]}}, {"type": "Feature", "properties": {"norad_id": 25397, "name": "TECHSAT 1B (GO-32)", "group": "resource", "lat": 60.68103043249069, "lon": 159.92054688908692, "alt_km": 803.6705068564061, "timestamp": "2025-12-06T11:28:10.685555+00:00", "meta": {"OBJECT_NAME": "TECHSAT 1B (GO-32)", "OBJECT_ID": "1998-043D", "EPOCH": "2025-12-05T23:06:59.931360", "MEAN_MOTION": 14.24374078, "ECCENTRICITY": 0.00021938, "INCLINATION": 98.9913, "RA_OF_ASC_NODE": 323.0191, "ARG_OF_PERICENTER": 68.3307, "MEAN_ANOMALY": 291.8105, "EPHEMERIS_TYPE": 0, "CLASSIFICATION_TYPE": "U", "NORAD_CAT_ID": 25397, "ELEMENT_SET_NO": 999, "REV_AT_EPOCH": 42382, "BSTAR": 0.00010199191, "MEAN_MOTION_DOT": 1.89e-06, "MEAN_MOTION_DDOT": 0}, "tle": {"line1": "1 25397U 98043D   25339.96319365  .00000189  00000+0  10199-3 0  9994", "line2": "2 25397  98.9913 323.0191 0002193  68.3307 291.8105 14.24374078423823"}}, "geometry": {"type": "Point", "coordinates": [159.92054688908692, 60.68103043249069]}}, {"type": "Feature", "properties": {"norad_id": 25504, "name": "SCD 2", "group": "resource", "lat": 24.97593897292596, "lon": -88.49912165581402, "alt_km": 745.7292631897226, "timestamp": "2025-12-06T11:28:10.685571+00:00", "meta": {"OBJECT_NAME": "SCD 2", "OBJECT_ID": "1998-060A", "EPOCH": "2025-12-05T21:53:57.393312", "MEAN_MOTION": 14.45417367, "ECCENTRICITY": 0.00166159, "INCLINATION": 24.9935, "RA_OF_ASC_NODE": 183.9949, "ARG_OF_PERICENTER": 240.5179, "MEAN_ANOMALY": 142.2596, "EPHEMERIS_TYPE": 0, "CLASSIFICATION_TYPE": "U", "NORAD_CAT_ID": 25504, "ELEMENT_SET_NO": 999, "REV_AT_EPOCH": 43233, "BSTAR": 0.00012779521, "MEAN_MOTION_DOT": 6.4e-06, "MEAN_MOTION_DDOT": 0}, "tle": {"line1": "1 25504U 98060A   25339.91246983  .00000640  00000+0  12780-3 0  9993", "line2": "2 25504  24.9935 183.9949 0016615 240.5179 142.2596 14.45417367432336"}}, "geometry": {"type": "Point", "coordinates": [-88.49912165581402, 24.97593897292596]}}, {"type": "Feature", "properties": {"norad_id": 25757, "name": "DLR-TUBSAT", "group": "resource", "lat": 64.9585587611827, "lon": -54.23092120184597, "alt_km": 719.5700802223082, "timestamp": "2025-12-06T11:28:10.685584+00:00", "meta": {"OBJECT_NAME": "DLR-TUBSAT", "OBJECT_ID": "1999-029B", "EPOCH": "2025-12-05T21:56:11.561280", "MEAN_MOTION": 14.52353508, "ECCENTRICITY": 0.00135271, "INCLINATION": 98.6556, "RA_OF_ASC_NODE": 324.2173, "ARG_OF_PERICENTER": 214.2202, "MEAN_ANOMALY": 145.8122, "EPHEMERIS_TYPE": 0, "CLASSIFICATION_TYPE": "U", "NORAD_CAT_ID": 25757, "ELEMENT_SET_NO": 999, "REV_AT_EPOCH": 40519, "BSTAR": 7.8429475e-05, "MEAN_MOTION_DOT": 2.71e-06, "MEAN_MOTION_DDOT": 0}, "tle": {"line1": "1 25757U 99029B   25339.91402270  .00000271  00000+0  78429-4 0  9995", "line2": "2 25757  98.6556 324.2173 0013527 214.2202 145.8122 14.52353508405198"}}, "geometry": {"type": "Point", "coordinates": [-54.23092120184597, 64.9585587611827]}}, {"type": "Feature", "properties": {"norad_id": 25994, "name": "TERRA", "group": "resource", "lat": -61.59918839488087, "lon": 47.41992601330626, "alt_km": 699.7422767560129, "timestamp": "2025-12-06T11:28:10.685597+00:00", "meta": {"OBJECT_NAME": "TERRA", "OBJECT_ID": "1999-068A", "EPOCH": "2025-12-05T23:04:05.507904", "MEAN_MOTION": 14.60940531, "ECCENTRICITY": 0.00034778, "INCLINATION": 97.9758, "RA_OF_ASC_NODE": 31.8941, "ARG_OF_PERICENTER": 111.4486, "MEAN_ANOMALY": 349.9212, "EPHEMERIS_TYPE": 0, "CLASSIFICATION_TYPE": "U", "NORAD_CAT_ID": 25994, "ELEMENT_SET_NO": 999, "REV_AT_EPOCH": 38139, "BSTAR": 0.00020770695, "MEAN_MOTION_DOT": 9.73e-06, "MEAN_MOTION_DDOT": 0}, "tle": {"line1": "1 25994U 99068A   25339.96117486  .00000973  00000+0  20771-3 0  9993", "line2": "2 25994  97.9758  31.8941 0003477 111.4486 349.9212 14.60940531381395"}}, "geometry": {"type": "Point", "coordinates": [47.41992601330626, -61.59918839488087]}}, {"type": "Feature", "properties": {"norad_id": 27004, "name": "MAROC-TUBSAT", "group": "resource", "lat": 13.565697535604029, "lon": -28.79917245127233, "alt_km": 1004.5252394368072, "timestamp": "2025-12-06T11:28:10.685610+00:00", "meta": {"OBJECT_NAME": "MAROC-TUBSAT", "OBJECT_ID": "2001-056D", "EPOCH": "2025-12-05T22:57:33.302016", "MEAN_MOTION": 13.70252401, "ECCENTRICITY": 0.00190929, "INCLINATION": 99.7911, "RA_OF_ASC_NODE": 148.2828, "ARG_OF_PERICENTER": 278.2131, "MEAN_ANOMALY": 198.09, "EPHEMERIS_TYPE": 0, "CLASSIFICATION_TYPE": "U", "NORAD_CAT_ID": 27004, "ELEMENT_SET_NO": 999, "REV_AT_EPOCH": 19972, "BSTAR": 3.6745108e-05, "MEAN_MOTION_DOT": -1.4e-07, "MEAN_MOTION_DDOT": 0}, "tle": {"line1": "1 27004U 01056D   25339.95663544 -.00000014  00000+0  36745-4 0  9993", "line2": "2 27004  99.7911 148.2828 0019092 278.2131 198.0900 13.70252401199729"}}, "geometry": {"type": "Point", "coordinates": [-28.79917245127233, 13.565697535604029]}}, {"type": "Feature", "properties": {"norad_id": 27424, "name": "AQUA", "group": "resource", "lat": 27.181787430098748, "lon": 125.60849411165123, "alt_km": 685.8618385003256, "timestamp": "2025-12-06T11:28:10.685622+00:00", "meta": {"OBJECT_NAME": "AQUA", "OBJECT_ID": "2002-022A", "EPOCH": "2025-12-05T21:55:12.842976", "MEAN_MOTION": 14.61783779, "ECCENTRICITY": 8.712e-05, "INCLINATION": 98.4027, "RA_OF_ASC_NODE": 300.6816, "ARG_OF_PERICENTER": 113.0911, "MEAN_ANOMALY": 310.1076, "EPHEMERIS_TYPE": 0, "CLASSIFICATION_TYPE": "U", "NORAD_CAT_ID": 27424, "ELEMENT_SET_NO": 999, "REV_AT_EPOCH": 25503, "BSTAR": 0.00048201288, "MEAN_MOTION_DOT": 2.356e-05, "MEAN_MOTION_DDOT": 0}, "tle": {"line1": "1 27424U 02022A   25339.91334309  .00002356  00000+0  48201-3 0  9992", "line2": "2 27424  98.4027 300.6816 0000871 113.0911 310.1076 14.61783779255033"}}, "geometry": {"type": "Point", "coordinates": [125.60849411165123, 27.181787430098748]}}, {"type": "Feature", "properties": {"norad_id": 28051, "name": "IRS-P6 (RESOURCESAT-1)", "group": "resource", "lat": -55.68232178854215, "lon": -171.04881039190852, "alt_km": 741.9862773156065, "timestamp": "2025-12-06T11:28:10.685633+00:00", "meta": {"OBJECT_NAME": "IRS-P6 (RESOURCESAT-1)", "OBJECT_ID": "2003-046A", "EPOCH": "2025-12-05T23:07:07.742784", "MEAN_MOTION": 14.36069917, "ECCENTRICITY": 0.0063802, "INCLINATION": 98.2187, "RA_OF_ASC_NODE": 20.6842, "ARG_OF_PERICENTER": 201.074, "MEAN_ANOMALY": 256.0285, "EPHEMERIS_TYPE": 0, "CLASSIFICATION_TYPE": "U", "NORAD_CAT_ID": 28051, "ELEMENT_SET_NO": 999, "REV_AT_EPOCH": 15279, "BSTAR": 0.00014859258, "MEAN_MOTION_DOT": 4.01e-06, "MEAN_MOTION_DDOT": 0}, "tle": {"line1": "1 28051U 03046A   25339.96328406  .00000401  00000+0  14859-3 0  9993", "line2": "2 28051  98.2187  20.6842 0063802 201.0740 256.0285 14.36069917152796"}}, "geometry": {"type": "Point", "coordinates": [-171.04881039190852, -55.68232178854215]}}, {"type": "Feature", "properties": {"norad_id": 28220, "name": "SHIYAN-1 (SY-1)", "group": "resource", "lat": -19.91619213882161, "lon": -141.23335255850768, "alt_km": 490.9538067331605, "timestamp": "2025-12-06T11:28:10.685645+00:00", "meta": {"OBJECT_NAME": "SHIYAN-1 (SY-1)", "OBJECT_ID": "2004-012A", "EPOCH": "2025-12-05T22:01:20.788608", "MEAN_MOTION": 15.27878629, "ECCENTRICITY": 0.00060951, "INCLINATION": 97.8947, "RA_OF_ASC_NODE": 41.0553, "ARG_OF_PERICENTER": 351.4859, "MEAN_ANOMALY": 8.6275, "EPHEMERIS_TYPE": 0, "CLASSIFICATION_TYPE": "U", "NORAD_CAT_ID": 28220, "ELEMENT_SET_NO": 999, "REV_AT_EPOCH": 18152, "BSTAR": 0.00075705471, "MEAN_MOTION_DOT": 0.00020569, "MEAN_MOTION_DDOT": 0}, "tle": {"line1": "1 28220U 04012A   25339.91760172  .00020569  00000+0  75705-3 0  9994", "line2": "2 28220  97.8947  41.0553 0006095 351.4859   8.6275 15.27878629181523"}}, "geometry": {"type": "Point", "coordinates": [-141.23335255850768, -19.91619213882161]}}, {"type": "Feature", "properties": {"norad_id": 28376, "name": "AURA", "group": "resource", "lat": -56.02405238067069, "lon": -56.7866973934066, "alt_km": 697.9319398936768, "timestamp": "2025-12-06T11:28:10.685657+00:00", "meta": {"OBJECT_NAME": "AURA", "OBJECT_ID": "2004-026A", "EPOCH": "2025-12-05T22:34:46.974144", "MEAN_MOTION": 14.6092156, "ECCENTRICITY": 0.00011464, "INCLINATION": 98.3175, "RA_OF_ASC_NODE": 290.136, "ARG_OF_PERICENTER": 93.1243, "MEAN_ANOMALY": 267.0089, "EPHEMERIS_TYPE": 0, "CLASSIFICATION_TYPE": "U", "NORAD_CAT_ID": 28376, "ELEMENT_SET_NO": 999, "REV_AT_EPOCH": 13799, "BSTAR": 0.00046583095, "MEAN_MOTION_DOT": 2.233e-05, "MEAN_MOTION_DDOT": 0}, "tle": {"line1": "1 28376U 04026A   25339.94082146  .00002233  00000+0  46583-3 0  9992", "line2": "2 28376  98.3175 290.1360 0001146  93.1243 267.0089 14.60921560137991"}}, "geometry": {"type": "Point", "coordinates": [-56.7866973934066, -56.02405238067069]}}]}